[{"OBJECT_NAME":"STARLINK-1994","OBJECT_ID":"2021-009AT","EPOCH":"2026-03-09T22:00:01.999584","MEAN_MOTION":15.57110467,"ECCENTRICITY":0.00093127,"INCLINATION":53.0487,"RA_OF_ASC_NODE":1.062,"ARG_OF_PERICENTER":99.8955,"MEAN_ANOMALY":322.2331,"EPHEMERIS_TYPE":0,"CLASSIFICATION_TYPE":"U","NORAD_CAT_ID":47589,"ELEMENT_SET_NO":999,"REV_AT_EPOCH":581,"BSTAR":0.0016353171,"MEAN_MOTION_DOT":0.00122261,"MEAN_MOTION_DDOT":0},{"OBJECT_NAME":"STARLINK-36600","OBJECT_ID":"2026-020G","EPOCH":"2026-03-09T22:00:01.999584","MEAN_MOTION":15.67643994,"ECCENTRICITY":0.00013173,"INCLINATION":42.9997,"RA_OF_ASC_NODE":140.9249,"ARG_OF_PERICENTER":269.1521,"MEAN_ANOMALY":338.3082,"EPHEMERIS_TYPE":0,"CLASSIFICATION_TYPE":"U","NORAD_CAT_ID":67623,"ELEMENT_SET_NO":999,"REV_AT_EPOCH":604,"BSTAR":-0.019817162,"MEAN_MOTION_DOT":-0.01966129,"MEAN_MOTION_DDOT":0}]
